OBJECT_NAME,OBJECT_ID,EPOCH,MEAN_MOTION,ECCENTRICITY,INCLINATION,RA_OF_ASC_NODE,ARG_OF_PERICENTER,MEAN_ANOMALY,EPHEMERIS_TYPE,CLASSIFICATION_TYPE,NORAD_CAT_ID,ELEMENT_SET_NO,REV_AT_EPOCH,BSTAR,MEAN_MOTION_DOT,MEAN_MOTION_DDOT
HAWK-5A,2022-057AB,2026-07-04T09:23:10.101696,15.52018369,.00043067,97.6627,345.3587,19.1202,341.0211,0,U,52757,999,22901,.42588549E-3,.25589E-3,0
HAWK-6B,2023-011A,2026-07-04T13:26:17.104416,15.23089219,.00025019,40.4975,250.7337,181.0595,179.0210,0,U,55324,999,19049,.30807955E-3,.7228E-4,0
HAWK-6C,2023-011C,2026-07-03T21:41:11.276736,15.23076788,.00027139,40.4962,251.3992,156.9532,203.1400,0,U,55326,999,19040,.2246611E-3,.5215E-4,0
HAWK-6A,2023-011D,2026-07-04T05:33:20.439648,15.23081616,.000233,40.4973,251.1123,159.0121,201.0785,0,U,55327,999,19045,.23486703E-3,.5461E-4,0
HAWK-7A,2023-054P,2026-07-04T09:43:37.206336,15.27541984,.00026827,97.2676,72.3046,14.8602,345.2716,0,U,56191,999,17965,.26225678E-3,.6994E-4,0
HAWK-7B,2023-054R,2026-07-04T09:43:31.254240,15.27545487,.00024748,97.2702,70.5747,36.1190,324.0216,0,U,56193,999,17965,.29315225E-3,.7828E-4,0
HAWK-7C,2023-054Y,2026-07-04T09:43:21.368352,15.27544313,.00021905,97.2678,71.3378,24.0181,336.1161,0,U,56200,999,17965,.28615302E-3,.7638E-4,0
