HAWK-5A                 
1 52757U 22057AB  26185.39108914  .00025589  00000+0  42589-3 0  9998
2 52757  97.6627 345.3587 0004306  19.1202 341.0211 15.52018369229014
HAWK-6B                 
1 55324U 23011A   26185.55992019  .00007228  00000+0  30808-3 0  9998
2 55324  40.4975 250.7337 0002501 181.0595 179.0210 15.23089219190497
HAWK-6C                 
1 55326U 23011C   26184.90360274  .00005215  00000+0  22466-3 0  9995
2 55326  40.4962 251.3992 0002713 156.9532 203.1400 15.23076788190404
HAWK-6A                 
1 55327U 23011D   26185.23148657  .00005461  00000+0  23487-3 0  9999
2 55327  40.4973 251.1123 0002330 159.0121 201.0785 15.23081616190458
HAWK-7A                 
1 56191U 23054P   26185.40529174  .00006994  00000+0  26226-3 0  9998
2 56191  97.2676  72.3046 0002682  14.8602 345.2716 15.27541984179654
HAWK-7B                 
1 56193U 23054R   26185.40522285  .00007828  00000+0  29315-3 0  9995
2 56193  97.2702  70.5747 0002474  36.1190 324.0216 15.27545487179654
HAWK-7C                 
1 56200U 23054Y   26185.40510843  .00007638  00000+0  28615-3 0  9992
2 56200  97.2678  71.3378 0002190  24.0181 336.1161 15.27544313179655
